[{"OBJECT_NAME":"IRIDIUM 151","OBJECT_ID":"2017-083E","EPOCH":"2026-03-05T06:32:31.124544","MEAN_MOTION":14.34218126,"ECCENTRICITY":0.00021649,"INCLINATION":86.4019,"RA_OF_ASC_NODE":5.4802,"ARG_OF_PERICENTER":86.6066,"MEAN_ANOMALY":273.5377,"EPHEMERIS_TYPE":0,"CLASSIFICATION_TYPE":"U","NORAD_CAT_ID":43074,"ELEMENT_SET_NO":999,"REV_AT_EPOCH":42924,"BSTAR":1.4041704e-5,"MEAN_MOTION_DOT":5.9e-7,"MEAN_MOTION_DDOT":0},{"OBJECT_NAME":"IRIDIUM 134","OBJECT_ID":"2017-083F","EPOCH":"2026-03-05T02:25:55.032960","MEAN_MOTION":14.3421855,"ECCENTRICITY":0.00019771,"INCLINATION":86.4023,"RA_OF_ASC_NODE":5.5584,"ARG_OF_PERICENTER":84.979,"MEAN_ANOMALY":275.1631,"EPHEMERIS_TYPE":0,"CLASSIFICATION_TYPE":"U","NORAD_CAT_ID":43075,"ELEMENT_SET_NO":999,"REV_AT_EPOCH":42918,"BSTAR":3.0855035e-5,"MEAN_MOTION_DOT":1.06e-6,"MEAN_MOTION_DDOT":0},{"OBJECT_NAME":"IRIDIUM 137","OBJECT_ID":"2017-083G","EPOCH":"2026-03-05T04:24:39.196800","MEAN_MOTION":14.3421746,"ECCENTRICITY":0.00022241,"INCLINATION":86.4013,"RA_OF_ASC_NODE":5.6145,"ARG_OF_PERICENTER":97.2414,"MEAN_ANOMALY":262.9034,"EPHEMERIS_TYPE":0,"CLASSIFICATION_TYPE":"U","NORAD_CAT_ID":43076,"ELEMENT_SET_NO":999,"REV_AT_EPOCH":42926,"BSTAR":-1.3226735e-5,"MEAN_MOTION_DOT":-1.7e-7,"MEAN_MOTION_DDOT":0},{"OBJECT_NAME":"IRIDIUM 141","OBJECT_ID":"2017-083H","EPOCH":"2026-03-05T05:55:59.864160","MEAN_MOTION":14.34221631,"ECCENTRICITY":0.00022212,"INCLINATION":86.4017,"RA_OF_ASC_NODE":5.4247,"ARG_OF_PERICENTER":82.7057,"MEAN_ANOMALY":277.4392,"EPHEMERIS_TYPE":0,"CLASSIFICATION_TYPE":"U","NORAD_CAT_ID":43077,"ELEMENT_SET_NO":999,"REV_AT_EPOCH":42927,"BSTAR":0.00013402034,"MEAN_MOTION_DOT":3.95e-6,"MEAN_MOTION_DDOT":0},{"OBJECT_NAME":"IRIDIUM 153","OBJECT_ID":"2017-083J","EPOCH":"2026-03-05T04:47:07.340928","MEAN_MOTION":14.34218237,"ECCENTRICITY":0.00021236,"INCLINATION":86.4017,"RA_OF_ASC_NODE":333.9591,"ARG_OF_PERICENTER":80.0236,"MEAN_ANOMALY":280.12,"EPHEMERIS_TYPE":0,"CLASSIFICATION_TYPE":"U","NORAD_CAT_ID":43078,"ELEMENT_SET_NO":999,"REV_AT_EPOCH":43037,"BSTAR":2.1088562e-5,"MEAN_MOTION_DOT":7.9e-7,"MEAN_MOTION_DDOT":0},{"OBJECT_NAME":"IRIDIUM 131","OBJECT_ID":"2017-083K","EPOCH":"2026-03-05T03:57:15.187104","MEAN_MOTION":14.34218291,"ECCENTRICITY":0.00023086,"INCLINATION":86.4023,"RA_OF_ASC_NODE":5.638,"ARG_OF_PERICENTER":85.131,"MEAN_ANOMALY":275.015,"EPHEMERIS_TYPE":0,"CLASSIFICATION_TYPE":"U","NORAD_CAT_ID":43079,"ELEMENT_SET_NO":999,"REV_AT_EPOCH":42919,"BSTAR":0.00013888005,"MEAN_MOTION_DOT":4.09e-6,"MEAN_MOTION_DDOT":0},{"OBJECT_NAME":"IRIDIUM 144","OBJECT_ID":"2018-030A","EPOCH":"2026-03-05T04:56:15.420192","MEAN_MOTION":14.34217944,"ECCENTRICITY":0.00020575,"INCLINATION":86.4015,"RA_OF_ASC_NODE":333.8876,"ARG_OF_PERICENTER":88.4777,"MEAN_ANOMALY":271.6655,"EPHEMERIS_TYPE":0,"CLASSIFICATION_TYPE":"U","NORAD_CAT_ID":43249,"ELEMENT_SET_NO":999,"REV_AT_EPOCH":41523,"BSTAR":2.5799177e-5,"MEAN_MOTION_DOT":9.2e-7,"MEAN_MOTION_DDOT":0},{"OBJECT_NAME":"IRIDIUM 149","OBJECT_ID":"2018-030B","EPOCH":"2026-03-05T05:05:23.403552","MEAN_MOTION":14.34217672,"ECCENTRICITY":0.00020668,"INCLINATION":86.4008,"RA_OF_ASC_NODE":333.8529,"ARG_OF_PERICENTER":82.7041,"MEAN_ANOMALY":277.439,"EPHEMERIS_TYPE":0,"CLASSIFICATION_TYPE":"U","NORAD_CAT_ID":43250,"ELEMENT_SET_NO":999,"REV_AT_EPOCH":41525,"BSTAR":-4.155e-7,"MEAN_MOTION_DOT":1.9e-7,"MEAN_MOTION_DDOT":0},{"OBJECT_NAME":"IRIDIUM 157","OBJECT_ID":"2018-030C","EPOCH":"2026-03-05T05:32:47.398560","MEAN_MOTION":14.34217775,"ECCENTRICITY":0.00022045,"INCLINATION":86.4006,"RA_OF_ASC_NODE":333.8953,"ARG_OF_PERICENTER":85.4704,"MEAN_ANOMALY":274.6744,"EPHEMERIS_TYPE":0,"CLASSIFICATION_TYPE":"U","NORAD_CAT_ID":43251,"ELEMENT_SET_NO":999,"REV_AT_EPOCH":41523,"BSTAR":1.144606e-6,"MEAN_MOTION_DOT":2.3e-7,"MEAN_MOTION_DDOT":0},{"OBJECT_NAME":"IRIDIUM 140","OBJECT_ID":"2018-030D","EPOCH":"2026-03-05T06:00:11.405664","MEAN_MOTION":14.34217823,"ECCENTRICITY":0.00020223,"INCLINATION":86.4015,"RA_OF_ASC_NODE":333.9008,"ARG_OF_PERICENTER":84.2757,"MEAN_ANOMALY":275.8669,"EPHEMERIS_TYPE":0,"CLASSIFICATION_TYPE":"U","NORAD_CAT_ID":43252,"ELEMENT_SET_NO":999,"REV_AT_EPOCH":41529,"BSTAR":1.0634814e-5,"MEAN_MOTION_DOT":5.0e-7,"MEAN_MOTION_DDOT":0},{"OBJECT_NAME":"IRIDIUM 145","OBJECT_ID":"2018-030E","EPOCH":"2026-03-05T05:41:55.073472","MEAN_MOTION":14.34220142,"ECCENTRICITY":0.00018864,"INCLINATION":86.4016,"RA_OF_ASC_NODE":333.8786,"ARG_OF_PERICENTER":93.0559,"MEAN_ANOMALY":267.0852,"EPHEMERIS_TYPE":0,"CLASSIFICATION_TYPE":"U","NORAD_CAT_ID":43253,"ELEMENT_SET_NO":999,"REV_AT_EPOCH":41522,"BSTAR":0.00011220953,"MEAN_MOTION_DOT":3.34e-6,"MEAN_MOTION_DDOT":0},{"OBJECT_NAME":"IRIDIUM 146","OBJECT_ID":"2018-030F","EPOCH":"2026-03-05T05:14:31.288416","MEAN_MOTION":14.34218722,"ECCENTRICITY":0.00020862,"INCLINATION":86.4015,"RA_OF_ASC_NODE":333.8991,"ARG_OF_PERICENTER":89.3582,"MEAN_ANOMALY":270.7852,"EPHEMERIS_TYPE":0,"CLASSIFICATION_TYPE":"U","NORAD_CAT_ID":43254,"ELEMENT_SET_NO":999,"REV_AT_EPOCH":41523,"BSTAR":4.5249613e-5,"MEAN_MOTION_DOT":1.46e-6,"MEAN_MOTION_DDOT":0},{"OBJECT_NAME":"IRIDIUM 148","OBJECT_ID":"2018-030G","EPOCH":"2026-03-05T06:09:19.421856","MEAN_MOTION":14.3421808,"ECCENTRICITY":0.00021815,"INCLINATION":86.4017,"RA_OF_ASC_NODE":333.9246,"ARG_OF_PERICENTER":86.5909,"MEAN_ANOMALY":273.5536,"EPHEMERIS_TYPE":0,"CLASSIFICATION_TYPE":"U","NORAD_CAT_ID":43255,"ELEMENT_SET_NO":999,"REV_AT_EPOCH":41527,"BSTAR":9.101895e-5,"MEAN_MOTION_DOT":2.75e-6,"MEAN_MOTION_DDOT":0},{"OBJECT_NAME":"IRIDIUM 142","OBJECT_ID":"2018-030H","EPOCH":"2026-03-05T05:23:39.346080","MEAN_MOTION":14.34217715,"ECCENTRICITY":0.00018266,"INCLINATION":86.4007,"RA_OF_ASC_NODE":333.8307,"ARG_OF_PERICENTER":92.8121,"MEAN_ANOMALY":267.3284,"EPHEMERIS_TYPE":0,"CLASSIFICATION_TYPE":"U","NORAD_CAT_ID":43256,"ELEMENT_SET_NO":999,"REV_AT_EPOCH":41523,"BSTAR":-2.811868e-6,"MEAN_MOTION_DOT":1.2e-7,"MEAN_MOTION_DDOT":0},{"OBJECT_NAME":"IRIDIUM 150","OBJECT_ID":"2018-030J","EPOCH":"2026-03-05T02:57:31.364352","MEAN_MOTION":14.34217278,"ECCENTRICITY":0.00020647,"INCLINATION":86.4016,"RA_OF_ASC_NODE":333.986,"ARG_OF_PERICENTER":85.9691,"MEAN_ANOMALY":274.1741,"EPHEMERIS_TYPE":0,"CLASSIFICATION_TYPE":"U","NORAD_CAT_ID":43257,"ELEMENT_SET_NO":999,"REV_AT_EPOCH":41524,"BSTAR":1.5128296e-5,"MEAN_MOTION_DOT":6.2e-7,"MEAN_MOTION_DDOT":0},{"OBJECT_NAME":"IRIDIUM 143","OBJECT_ID":"2018-030K","EPOCH":"2026-03-05T05:51:03.360096","MEAN_MOTION":14.34217769,"ECCENTRICITY":0.00018877,"INCLINATION":86.4014,"RA_OF_ASC_NODE":334.024,"ARG_OF_PERICENTER":89.7765,"MEAN_ANOMALY":270.3647,"EPHEMERIS_TYPE":0,"CLASSIFICATION_TYPE":"U","NORAD_CAT_ID":43258,"ELEMENT_SET_NO":999,"REV_AT_EPOCH":41519,"BSTAR":-1.839931e-6,"MEAN_MOTION_DOT":1.5e-7,"MEAN_MOTION_DDOT":0},{"OBJECT_NAME":"IRIDIUM 161","OBJECT_ID":"2018-047C","EPOCH":"2026-03-05T05:48:34.300224","MEAN_MOTION":14.43284539,"ECCENTRICITY":0.00025389,"INCLINATION":86.4508,"RA_OF_ASC_NODE":131.9413,"ARG_OF_PERICENTER":91.9722,"MEAN_ANOMALY":268.177,"EPHEMERIS_TYPE":0,"CLASSIFICATION_TYPE":"U","NORAD_CAT_ID":43478,"ELEMENT_SET_NO":999,"REV_AT_EPOCH":41014,"BSTAR":0.0001293007,"MEAN_MOTION_DOT":4.55e-6,"MEAN_MOTION_DDOT":0}]
